IRIDIUM 7               
1 24793U 97020B   24358.76655379  .00000735  00000+0  24798-3 0  9990
2 24793  86.3959 250.3762 0002010  75.4373 284.7047 14.35674419446947
IRIDIUM 5               
1 24795U 97020D   24359.05726848  .00006998  00000+0  60956-3 0  9998
2 24795  86.3918 164.2900 0116024  46.5714 314.5097 14.91599027459360
IRIDIUM 4               
1 24796U 97020E   24358.79109223  .00000646  00000+0  21336-3 0  9994
2 24796  86.3956 247.3568 0002195  80.7827 279.3619 14.36587362447312
IRIDIUM 914             
1 24836U 97030A   24359.41977214  .00001085  00000+0  33480-3 0  9994
2 24836  86.3933 256.2248 0003849  80.1284 280.0350 14.40551830444060
IRIDIUM 16              
1 24841U 97030F   24359.32747859  .00001115  00000+0  35947-3 0  9994
2 24841  86.4028 278.7449 0000655   3.2584 356.8618 14.38414308442124
IRIDIUM 911             
1 24842U 97030G   24358.87022889  .00001475  00000+0  39809-3 0  9993
2 24842  86.4452 277.8864 0013251 331.2321  28.8150 14.47224602449700
IRIDIUM 17              
1 24870U 97034B   24358.78907076  .00001109  00000+0  36400-3 0  9996
2 24870  86.3954 308.5371 0001341 130.3187 229.8127 14.37515535438383
IRIDIUM 920             
1 24871U 97034C   24359.35187033  .00001274  00000+0  38865-3 0  9994
2 24871  86.3968 287.9199 0009799 306.8558  53.1742 14.41226025441657
